{"fetched_at":"2026-07-06T18:35:14.557Z","source":"https://celestrak.org/NORAD/elements/gp.php?GROUP=oneweb&FORMAT=JSON","constellation":"oneweb","records":[{"OBJECT_NAME":"ONEWEB-0685","OBJECT_ID":"2022-166AP","EPOCH":"2026-07-06T04:01:37.962336","CLASSIFICATION_TYPE":"U","MEAN_MOTION":13.2184841,"ECCENTRICITY":0.00018187,"INCLINATION":87.9236,"RA_OF_ASC_NODE":240.2029,"ARG_OF_PERICENTER":88.4665,"MEAN_ANOMALY":271.6677,"EPHEMERIS_TYPE":0,"NORAD_CAT_ID":54679,"ELEMENT_SET_NO":999,"REV_AT_EPOCH":17392,"BSTAR":0.00015346504,"MEAN_MOTION_DOT":7.6e-7,"MEAN_MOTION_DDOT":0},{"OBJECT_NAME":"ONEWEB-0712","OBJECT_ID":"2022-166AQ","EPOCH":"2026-07-06T03:14:45.705408","CLASSIFICATION_TYPE":"U","MEAN_MOTION":13.16595414,"ECCENTRICITY":0.00016745,"INCLINATION":87.9085,"RA_OF_ASC_NODE":225.0117,"ARG_OF_PERICENTER":103.8258,"MEAN_ANOMALY":256.3059,"EPHEMERIS_TYPE":0,"NORAD_CAT_ID":54680,"ELEMENT_SET_NO":999,"REV_AT_EPOCH":17455,"BSTAR":-0.0002238545,"MEAN_MOTION_DOT":-7.3e-7,"MEAN_MOTION_DDOT":0},{"OBJECT_NAME":"ONEWEB-0714","OBJECT_ID":"2022-166AR","EPOCH":"2026-07-06T04:09:14.008320","CLASSIFICATION_TYPE":"U","MEAN_MOTION":13.21826124,"ECCENTRICITY":0.00019293,"INCLINATION":87.9239,"RA_OF_ASC_NODE":240.1999,"ARG_OF_PERICENTER":104.1134,"MEAN_ANOMALY":256.0215,"EPHEMERIS_TYPE":0,"NORAD_CAT_ID":54681,"ELEMENT_SET_NO":999,"REV_AT_EPOCH":17404,"BSTAR":0.00023759043,"MEAN_MOTION_DOT":0.00000111,"MEAN_MOTION_DDOT":0},{"OBJECT_NAME":"ONEWEB-0532","OBJECT_ID":"2023-004A","EPOCH":"2026-07-06T00:23:49.377408","CLASSIFICATION_TYPE":"U","MEAN_MOTION":13.17648152,"ECCENTRICITY":0.00020826,"INCLINATION":87.9134,"RA_OF_ASC_NODE":2.1177,"ARG_OF_PERICENTER":83.2647,"MEAN_ANOMALY":276.8722,"EPHEMERIS_TYPE":0,"NORAD_CAT_ID":55140,"ELEMENT_SET_NO":999,"REV_AT_EPOCH":17006,"BSTAR":0.00027205099,"MEAN_MOTION_DOT":0.00000119,"MEAN_MOTION_DDOT":0},{"OBJECT_NAME":"ONEWEB-0533","OBJECT_ID":"2023-004B","EPOCH":"2026-07-05T23:35:34.487520","CLASSIFICATION_TYPE":"U","MEAN_MOTION":13.12441291,"ECCENTRICITY":0.00016562,"INCLINATION":87.8955,"RA_OF_ASC_NODE":346.9322,"ARG_OF_PERICENTER":90.2092,"MEAN_ANOMALY":269.9226,"EPHEMERIS_TYPE":0,"NORAD_CAT_ID":55141,"ELEMENT_SET_NO":999,"REV_AT_EPOCH":17052,"BSTAR":0.00091937273,"MEAN_MOTION_DOT":0.00000343,"MEAN_MOTION_DDOT":0},{"OBJECT_NAME":"ONEWEB-0541","OBJECT_ID":"2023-004C","EPOCH":"2026-07-06T00:39:44.491392","CLASSIFICATION_TYPE":"U","MEAN_MOTION":13.11417026,"ECCENTRICITY":0.00020342,"INCLINATION":87.8891,"RA_OF_ASC_NODE":17.3077,"ARG_OF_PERICENTER":89.1791,"MEAN_ANOMALY":270.957,"EPHEMERIS_TYPE":0,"NORAD_CAT_ID":55142,"ELEMENT_SET_NO":999,"REV_AT_EPOCH":16841,"BSTAR":-0.0010783259,"MEAN_MOTION_DOT":-0.00000369,"MEAN_MOTION_DDOT":0},{"OBJECT_NAME":"ONEWEB-0543","OBJECT_ID":"2023-004D","EPOCH":"2026-07-05T21:43:43.729536","CLASSIFICATION_TYPE":"U","MEAN_MOTION":13.18686231,"ECCENTRICITY":0.00017328,"INCLINATION":87.918,"RA_OF_ASC_NODE":331.7451,"ARG_OF_PERICENTER":102.4397,"MEAN_ANOMALY":257.6929,"EPHEMERIS_TYPE":0,"NORAD_CAT_ID":55143,"ELEMENT_SET_NO":999,"REV_AT_EPOCH":17216,"BSTAR":1.81661e-7,"MEAN_MOTION_DOT":1.3e-7,"MEAN_MOTION_DDOT":0},{"OBJECT_NAME":"ONEWEB-0544","OBJECT_ID":"2023-004E","EPOCH":"2026-07-05T21:34:01.063488","CLASSIFICATION_TYPE":"U","MEAN_MOTION":13.18686609,"ECCENTRICITY":0.0001958,"INCLINATION":87.9179,"RA_OF_ASC_NODE":331.7463,"ARG_OF_PERICENTER":102.2125,"MEAN_ANOMALY":257.9227,"EPHEMERIS_TYPE":0,"NORAD_CAT_ID":55144,"ELEMENT_SET_NO":999,"REV_AT_EPOCH":17216,"BSTAR":0.00018418888,"MEAN_MOTION_DOT":8.6e-7,"MEAN_MOTION_DDOT":0},{"OBJECT_NAME":"ONEWEB-0560","OBJECT_ID":"2023-004F","EPOCH":"2026-07-05T23:13:32.909664","CLASSIFICATION_TYPE":"U","MEAN_MOTION":13.18685272,"ECCENTRICITY":0.00019218,"INCLINATION":87.9179,"RA_OF_ASC_NODE":331.7219,"ARG_OF_PERICENTER":105.3643,"MEAN_ANOMALY":254.7701,"EPHEMERIS_TYPE":0,"NORAD_CAT_ID":55145,"ELEMENT_SET_NO":999,"REV_AT_EPOCH":17218,"BSTAR":-0.00049651139,"MEAN_MOTION_DOT":-0.00000183,"MEAN_MOTION_DDOT":0},{"OBJECT_NAME":"ONEWEB-0565","OBJECT_ID":"2023-004G","EPOCH":"2026-07-05T21:14:36.233376","CLASSIFICATION_TYPE":"U","MEAN_MOTION":13.18686317,"ECCENTRICITY":0.00022864,"INCLINATION":87.9169,"RA_OF_ASC_NODE":331.7646,"ARG_OF_PERICENTER":98.417,"MEAN_ANOMALY":261.7222,"EPHEMERIS_TYPE":0,"NORAD_CAT_ID":55146,"ELEMENT_SET_NO":999,"REV_AT_EPOCH":17216,"BSTAR":0.00015014802,"MEAN_MOTION_DOT":7.2e-7,"MEAN_MOTION_DDOT":0},{"OBJECT_NAME":"ONEWEB-0567","OBJECT_ID":"2023-004H","EPOCH":"2026-07-05T21:04:53.180256","CLASSIFICATION_TYPE":"U","MEAN_MOTION":13.18687246,"ECCENTRICITY":0.00021995,"INCLINATION":87.9177,"RA_OF_ASC_NODE":331.7513,"ARG_OF_PERICENTER":101.6446,"MEAN_ANOMALY":258.4934,"EPHEMERIS_TYPE":0,"NORAD_CAT_ID":55147,"ELEMENT_SET_NO":999,"REV_AT_EPOCH":17216,"BSTAR":0.00016870848,"MEAN_MOTION_DOT":7.9e-7,"MEAN_MOTION_DDOT":0},{"OBJECT_NAME":"ONEWEB-0569","OBJECT_ID":"2023-004J","EPOCH":"2026-07-05T19:46:32.616768","CLASSIFICATION_TYPE":"U","MEAN_MOTION":13.1347044,"ECCENTRICITY":0.00024273,"INCLINATION":87.8983,"RA_OF_ASC_NODE":316.5112,"ARG_OF_PERICENTER":118.943,"MEAN_ANOMALY":241.1942,"EPHEMERIS_TYPE":0,"NORAD_CAT_ID":55148,"ELEMENT_SET_NO":999,"REV_AT_EPOCH":17262,"BSTAR":0.00053686131,"MEAN_MOTION_DOT":0.00000209,"MEAN_MOTION_DDOT":0},{"OBJECT_NAME":"ONEWEB-0570","OBJECT_ID":"2023-004K","EPOCH":"2026-07-05T22:42:00.223488","CLASSIFICATION_TYPE":"U","MEAN_MOTION":13.18686259,"ECCENTRICITY":0.0002165,"INCLINATION":87.9178,"RA_OF_ASC_NODE":331.7359,"ARG_OF_PERICENTER":88.541,"MEAN_ANOMALY":271.597,"EPHEMERIS_TYPE":0,"NORAD_CAT_ID":55149,"ELEMENT_SET_NO":999,"REV_AT_EPOCH":17216,"BSTAR":0.000018613195,"MEAN_MOTION_DOT":2e-7,"MEAN_MOTION_DDOT":0},{"OBJECT_NAME":"ONEWEB-0571","OBJECT_ID":"2023-004L","EPOCH":"2026-07-05T22:32:18.030912","CLASSIFICATION_TYPE":"U","MEAN_MOTION":13.18685214,"ECCENTRICITY":0.00029973,"INCLINATION":87.9179,"RA_OF_ASC_NODE":331.7368,"ARG_OF_PERICENTER":110.0427,"MEAN_ANOMALY":250.1028,"EPHEMERIS_TYPE":0,"NORAD_CAT_ID":55150,"ELEMENT_SET_NO":999,"REV_AT_EPOCH":17217,"BSTAR":0.000061698734,"MEAN_MOTION_DOT":3.7e-7,"MEAN_MOTION_DDOT":0},{"OBJECT_NAME":"ONEWEB-0572","OBJECT_ID":"2023-004M","EPOCH":"2026-07-05T23:19:26.808384","CLASSIFICATION_TYPE":"U","MEAN_MOTION":13.17650516,"ECCENTRICITY":0.00020245,"INCLINATION":87.9137,"RA_OF_ASC_NODE":2.128,"ARG_OF_PERICENTER":91.4968,"MEAN_ANOMALY":268.6396,"EPHEMERIS_TYPE":0,"NORAD_CAT_ID":55151,"ELEMENT_SET_NO":999,"REV_AT_EPOCH":16995,"BSTAR":-0.000041135508,"MEAN_MOTION_DOT":-3e-8,"MEAN_MOTION_DDOT":0},{"OBJECT_NAME":"ONEWEB-0573","OBJECT_ID":"2023-004N","EPOCH":"2026-07-05T22:22:33.996288","CLASSIFICATION_TYPE":"U","MEAN_MOTION":13.18687019,"ECCENTRICITY":0.00027012,"INCLINATION":87.9177,"RA_OF_ASC_NODE":331.7398,"ARG_OF_PERICENTER":103.31,"MEAN_ANOMALY":256.8334,"EPHEMERIS_TYPE":0,"NORAD_CAT_ID":55152,"ELEMENT_SET_NO":999,"REV_AT_EPOCH":17216,"BSTAR":0.00015394788,"MEAN_MOTION_DOT":7.4e-7,"MEAN_MOTION_DDOT":0}]}
