[
  {
    "name": "ONEWEB-0685",
    "noradId": "54679",
    "line1": "1 54679U 22166AP  26187.16780049  .00000076  00000+0  15347-3 0  9992",
    "line2": "2 54679  87.9236 240.2029 0001818  88.4665 271.6677 13.21848410173922"
  },
  {
    "name": "ONEWEB-0712",
    "noradId": "54680",
    "line1": "1 54680U 22166AQ  26187.13525122 -.00000073  00000+0 -22385-3 0  9999",
    "line2": "2 54680  87.9085 225.0117 0001674 103.8258 256.3059 13.16595414174556"
  },
  {
    "name": "ONEWEB-0714",
    "noradId": "54681",
    "line1": "1 54681U 22166AR  26187.17307880  .00000111  00000+0  23759-3 0  9990",
    "line2": "2 54681  87.9239 240.1999 0001929 104.1134 256.0215 13.21826124174040"
  },
  {
    "name": "ONEWEB-0532",
    "noradId": "55140",
    "line1": "1 55140U 23004A   26187.01654372  .00000119  00000+0  27205-3 0  9995",
    "line2": "2 55140  87.9134   2.1177 0002082  83.2647 276.8722 13.17648152170065"
  },
  {
    "name": "ONEWEB-0533",
    "noradId": "55141",
    "line1": "1 55141U 23004B   26186.98303805  .00000343  00000+0  91937-3 0  9995",
    "line2": "2 55141  87.8955 346.9322 0001656  90.2092 269.9226 13.12441291170528"
  },
  {
    "name": "ONEWEB-0541",
    "noradId": "55142",
    "line1": "1 55142U 23004C   26187.02759828 -.00000369  00000+0 -10783-2 0  9991",
    "line2": "2 55142  87.8891  17.3077 0002034  89.1791 270.9570 13.11417026168415"
  },
  {
    "name": "ONEWEB-0543",
    "noradId": "55143",
    "line1": "1 55143U 23004D   26186.90536724  .00000013  00000+0  18166-6 0  9997",
    "line2": "2 55143  87.9180 331.7451 0001732 102.4397 257.6929 13.18686231172162"
  },
  {
    "name": "ONEWEB-0544",
    "noradId": "55144",
    "line1": "1 55144U 23004E   26186.89862342  .00000086  00000+0  18419-3 0  9992",
    "line2": "2 55144  87.9179 331.7463 0001958 102.2125 257.9227 13.18686609172164"
  },
  {
    "name": "ONEWEB-0560",
    "noradId": "55145",
    "line1": "1 55145U 23004F   26186.96774201 -.00000183  00000+0 -49651-3 0  9999",
    "line2": "2 55145  87.9179 331.7219 0001921 105.3643 254.7701 13.18685272172182"
  },
  {
    "name": "ONEWEB-0565",
    "noradId": "55146",
    "line1": "1 55146U 23004G   26186.88514159  .00000072  00000+0  15015-3 0  9997",
    "line2": "2 55146  87.9169 331.7646 0002286  98.4170 261.7222 13.18686317172163"
  },
  {
    "name": "ONEWEB-0567",
    "noradId": "55147",
    "line1": "1 55147U 23004H   26186.87839329  .00000079  00000+0  16871-3 0  9994",
    "line2": "2 55147  87.9177 331.7513 0002199 101.6446 258.4934 13.18687246172167"
  },
  {
    "name": "ONEWEB-0569",
    "noradId": "55148",
    "line1": "1 55148U 23004J   26186.82398862  .00000209  00000+0  53686-3 0  9992",
    "line2": "2 55148  87.8983 316.5112 0002427 118.9430 241.1942 13.13470440172626"
  },
  {
    "name": "ONEWEB-0570",
    "noradId": "55149",
    "line1": "1 55149U 23004K   26186.94583592  .00000020  00000+0  18613-4 0  9995",
    "line2": "2 55149  87.9178 331.7359 0002165  88.5410 271.5970 13.18686259172164"
  },
  {
    "name": "ONEWEB-0571",
    "noradId": "55150",
    "line1": "1 55150U 23004L   26186.93909758  .00000037  00000+0  61699-4 0  9992",
    "line2": "2 55150  87.9179 331.7368 0002997 110.0427 250.1028 13.18685214172177"
  },
  {
    "name": "ONEWEB-0572",
    "noradId": "55151",
    "line1": "1 55151U 23004M   26186.97183806 -.00000003  00000+0 -41136-4 0  9994",
    "line2": "2 55151  87.9137   2.1280 0002024  91.4968 268.6396 13.17650516169957"
  },
  {
    "name": "ONEWEB-0573",
    "noradId": "55152",
    "line1": "1 55152U 23004N   26186.93233792  .00000074  00000+0  15395-3 0  9994",
    "line2": "2 55152  87.9177 331.7398 0002701 103.3100 256.8334 13.18687019172163"
  }
]